[{"OBJECT_NAME":"STARLINK-1801","OBJECT_ID":"2020-073AH","EPOCH":"2026-03-10T00:00:02.999808","MEAN_MOTION":15.71605578,"ECCENTRICITY":0.00058448,"INCLINATION":53.0451,"RA_OF_ASC_NODE":196.4487,"ARG_OF_PERICENTER":213.6688,"MEAN_ANOMALY":260.6117,"EPHEMERIS_TYPE":0,"CLASSIFICATION_TYPE":"U","NORAD_CAT_ID":46701,"ELEMENT_SET_NO":999,"REV_AT_EPOCH":590,"BSTAR":4.5163381e-5,"MEAN_MOTION_DOT":5.32e-5,"MEAN_MOTION_DDOT":0},{"OBJECT_NAME":"STARLINK-11302 [DTC]","OBJECT_ID":"2024-171E","EPOCH":"2026-03-09T12:38:33.638208","MEAN_MOTION":15.69706863,"ECCENTRICITY":8.398e-5,"INCLINATION":53.1596,"RA_OF_ASC_NODE":177.0315,"ARG_OF_PERICENTER":72.3493,"MEAN_ANOMALY":287.7617,"EPHEMERIS_TYPE":0,"CLASSIFICATION_TYPE":"U","NORAD_CAT_ID":61204,"ELEMENT_SET_NO":999,"REV_AT_EPOCH":8437,"BSTAR":1.2306031e-5,"MEAN_MOTION_DOT":9.03e-6,"MEAN_MOTION_DDOT":0}]
